COSMOS 2498             
1 39763U 14028C   25224.69375122  .00000037  00000+0  19730-3 0  9995
2 39763  82.4479 302.1382 0021164  30.2590 329.9707 12.42966830509222
COSMOS 2499 (RS-47)     
1 39765U 14028E   25224.68003037  .00000016  00000+0  20095-4 0  9993
2 39765  82.4475 100.6289 0231952   6.2016 354.1870 12.82894384525464
HODOYOSHI-4             
1 40011U 14033B   25224.69121531  .00001339  00000+0  15506-3 0  9995
2 40011  97.5513  59.5850 0022709 246.4867 113.3963 14.86903192602947
UNISAT-6                
1 40012U 14033C   25224.67787586  .00002491  00000+0  28863-3 0  9992
2 40012  97.7501  19.1203 0047519   5.9694 354.2078 14.85563528600319
DEIMOS-2                
1 40013U 14033D   25224.70181851  .00001665  00000+0  16857-3 0  9992
2 40013  97.6248 104.4888 0000866  82.0163 278.1154 14.92251981591699
BUGSAT-1 (TITA)         
1 40014U 14033E   25224.70880398  .00004963  00000+0  29484-3 0  9999
2 40014  98.0699 294.8268 0031526 149.4841 210.8231 15.11393543609174
SAUDISAT 4              
1 40016U 14033G   25224.66111375  .00000634  00000+0  91609-4 0  9998
2 40016  97.7155  17.4256 0045360 359.4443   0.6710 14.78830818600460
APRIZESAT 9             
1 40018U 14033J   25224.38926733  .00000864  00000+0  13562-3 0  9997
2 40018  97.8626   1.0928 0068221 112.7687 248.0749 14.73565486598076
BRITE-CA1 (TORONTO)     
1 40020U 14033L   25224.61980943  .00001322  00000+0  20969-3 0  9998
2 40020  97.9337 355.2039 0079878 183.7449 176.3171 14.71737789596817
DUCHIFAT-1              
1 40021U 14033M   25224.56530166  .00022722  00000+0  75920-3 0  9995
2 40021  98.0937 244.5722 0010329  99.1741 261.0667 15.30985510608107
NANOSATC-BR1            
1 40024U 14033Q   25224.56933511  .00012619  00000+0  59374-3 0  9998
2 40024  98.0925 227.0077 0005661 155.0142 205.1366 15.19704013606923
QB50P1                  
1 40025U 14033R   25224.71622168  .00008767  00000+0  52334-3 0  9997
2 40025  98.0873 210.9279 0010058 187.4437 172.6643 15.11348260606323
DTUSAT-2                
1 40030U 14033W   25224.36341958  .00006565  00000+0  41933-3 0  9996
2 40030  98.0595 199.3160 0008672 192.9252 167.1754 15.08994279606015
FLOCK 1C-4              
1 40031U 14033X   25224.60530634  .00066321  00000+0  13345-2 0  9996
2 40031  98.0871 240.5320 0007182 121.0281 239.1672 15.46351519607432
QB50P2                  
1 40032U 14033Y   25224.64567010  .00006442  00000+0  41049-3 0  9990
2 40032  98.0487 199.1782 0010000 135.4397 224.7636 15.09074581606032
PERSEUS-M1              
1 40039U 14033AF  25224.72668532  .00001626  00000+0  15824-3 0  9998
2 40039  97.9296 159.8230 0010612 236.8470 123.1731 14.93936837604559
POLYITAN-1              
1 40042U 14033AJ  25224.51594642  .00013482  00000+0  62618-3 0  9995
2 40042  98.1062 219.4746 0011455 133.7939 226.4243 15.20090336606499
TIGRISAT                
1 40043U 14033AK  25224.69698304  .00001830  00000+0  22551-3 0  9991
2 40043  97.7433  17.9501 0051304   7.7019 352.4971 14.83209382599864
AISAT                   
1 40054U 14034B   25224.66007017  .00007707  00000+0  61166-3 0  9990
2 40054  98.2680 111.1604 0014321 161.3998 198.7751 15.00733986600804
CANX-4                  
1 40055U 14034C   25224.56277307  .00000998  00000+0  13827-3 0  9997
2 40055  98.3555  82.9076 0011716 284.1278  75.8630 14.80342176598851
CANX-5                  
1 40056U 14034D   25224.56457708  .00001013  00000+0  14023-3 0  9991
2 40056  98.3558  82.9351 0011720 284.3654  75.6255 14.80356210589660
VELOX-I                 
1 40057U 14034E   25224.69982709  .00005354  00000+0  51241-3 0  9995
2 40057  98.2839 107.6732 0007368 195.9169 164.1819 14.93640032600487
GONETS-M 10             
1 40063U 14036C   25224.69939236  .00000038  00000+0  20278-3 0  9991
2 40063  82.5129 139.2929 0022831  93.3250 267.0442 12.42934880503920
METEOR-M 2              
1 40069U 14037A   25224.75271430  .00000131  00000+0  79072-4 0  9991
2 40069  98.4731 207.1054 0005117 201.9488 158.1472 14.21317976575509
DX1                     
1 40071U 14037C   25224.69983991  .00001746  00000+0  19514-3 0  9996
2 40071  98.3451 163.8587 0007123 184.5563 175.5588 14.88363181600195
UKUBE-1                 
1 40074U 14037F   25224.48882883  .00007762  00000+0  53227-3 0  9997
2 40074  98.3983 192.4364 0003636 109.8115 250.3502 15.06341449601965
GAOFEN-2                
1 40118U 14049A   25224.74092216  .00001053  00000+0  14556-3 0  9990
2 40118  98.0567 283.6003 0008800 150.4607 209.7103 14.80184344593592
BRITE-PL2 (HEWELIUSZ)   
1 40119U 14049B   25224.23671812  .00002605  00000+0  25699-3 0  9994
2 40119  97.8937 329.6290 0015608  57.4733 302.7991 14.92802168595326
CBERS 4                 
1 40336U 14079A   25224.74753915  .00000120  00000+0  56279-4 0  9998
2 40336  98.3492 286.8087 0001738 118.5195 241.6166 14.35527552559702
SMAP                    
1 40376U 15003A   25224.70380049  .00000490  00000+0  10381-3 0  9993
2 40376  98.1295 231.1427 0001532  91.3740 268.7637 14.63374178562502
GONETS-M 11             
1 40552U 15020A   25224.70036172  .00000013  00000+0  24441-4 0  9997
2 40552  82.4824 223.1680 0015307 320.7935  39.2035 12.42897934470410
GONETS-M 12             
1 40553U 15020B   25224.75687596  .00000010  00000+0 -66277-6 0  9998
2 40553  82.4858 224.1737 0013714 303.6870  56.2901 12.42858872470419
GONETS-M 13             
1 40554U 15020C   25224.72730022  .00000010  00000+0  28976-5 0  9991
2 40554  82.4819 222.9011 0011978 288.5562  71.4216 12.42896998470382
DMC3-FM1                
1 40715U 15032A   25224.76528060  .00000644  00000+0  81199-4 0  9992
2 40715  97.6896  96.3051 0005571   5.2195 354.9078 14.85155517544122
DMC3-FM2                
1 40716U 15032B   25224.71992388  .00000646  00000+0  81471-4 0  9991
2 40716  97.6952  97.6213 0006337   9.1713 350.9617 14.85153150544115
DMC3-FM3                
1 40717U 15032C   25224.67469812  .00000629  00000+0  79567-4 0  9992
2 40717  97.7004  99.1290 0005586  11.6280 348.5063 14.85156300544117
CARBONITE 1 (CBNT-1)    
1 40718U 15032D   25224.67147861  .00001839  00000+0  23789-3 0  9998
2 40718  97.6449  51.1385 0013785 222.7360 137.2783 14.81981175543626
DEORBITSAIL             
1 40719U 15032E   25224.55729474  .00008007  00000+0  68925-3 0  9997
2 40719  97.6358  82.6973 0011518 163.7265 196.4329 14.97571848544957
2015-049G               
1 40905U 15049G   25224.68077967  .00017950  00000+0  36306-3 0  9994
2 40905  97.4983 249.4685 0005950 267.3142  92.7426 15.46498322548485
LILACSAT-2              
1 40908U 15049K   25224.69570290  .00012039  00000+0  30111-3 0  9996
2 40908  97.5040 246.6421 0006903 292.5483  67.5032 15.40250084548092
COSMOS 2507             
1 40920U 15050A   25224.69532420  .00000035  00000+0  18051-3 0  9997
2 40920  82.4892 271.7075 0008154 305.9196  54.1126 12.42913751448538
COSMOS 2508             
1 40921U 15050B   25224.72758032  .00000033  00000+0  16397-3 0  9990
2 40921  82.4843 270.3087 0013134 342.0500  18.0114 12.42899867448524
COSMOS 2509             
1 40922U 15050C   25224.66853622  .00000011  00000+0  69378-5 0  9990
2 40922  82.4849 270.4321 0014031   1.5085 358.6035 12.42921249448553
LQSAT                   
1 40958U 15057A   25224.65260399  .00000648  00000+0  10049-3 0  9993
2 40958  97.6575 228.7019 0016949 188.9367 171.1545 14.76155736529787
LINGQIAO VIDEO A        
1 40959U 15057B   25224.72941792  .00000696  00000+0  10611-3 0  9993
2 40959  97.6539 230.1125 0016781 186.9644 173.1336 14.76718957529873
LINGQIAO VIDEO B        
1 40960U 15057C   25224.72373503  .00000704  00000+0  10708-3 0  9991
2 40960  97.6525 231.3266 0016924 187.1955 172.9015 14.76792483529918
JILIN-1                 
1 40961U 15057D   25224.74350326  .00000771  00000+0  11463-3 0  9995
2 40961  97.6497 234.6517 0017066 181.9493 178.1654 14.77502106530055
FOX-1A (AO-85)          
1 40967U 15058D   25224.23616768  .00002383  00000+0  22246-3 0  9993
2 40967  64.7758 157.4110 0152022 174.3906 185.8955 14.88396968 67541
SINOD-D 1               
1 40968U 15058E   25224.48831501  .00003601  00000+0  30387-3 0  9994
2 40968  64.7763 143.2497 0141409 173.1865 187.1217 14.92331884 70537
ELEKTRO-L 2             
1 41105U 15074A   25224.39386784 -.00000116  00000+0  00000+0 0  9998
2 41105   5.9104  74.3374 0001544 163.5743 210.4679  1.00272388 35416
DAMPE                   
1 41173U 15078A   25224.71969580  .00001445  00000+0  52921-4 0  9993
2 41173  97.4509 224.0060 0014096  90.5431 269.7424 15.29607205537374
ORBCOMM FM114           
1 41179U 15081A   25224.73330345  .00000497  00000+0  14303-3 0  9993
2 41179  47.0040  19.7608 0002680 247.2077 112.8525 14.58281476512722
ORBCOMM FM110           
1 41182U 15081D   25224.72565552  .00000683  00000+0  18289-3 0  9990
2 41182  47.0032  19.3378 0001933 110.5133 249.5960 14.58281535512594
ORBCOMM FM112           
1 41184U 15081F   25224.49099440  .00000614  00000+0  16800-3 0  9995
2 41184  46.9993 289.3388 0002473 251.6056 108.4561 14.58315952513885
ORBCOMM FM113           
1 41185U 15081G   25224.53634900  .00000607  00000+0  16635-3 0  9995
2 41185  47.0009 289.4580 0002276 261.7898  98.2729 14.58312067513873
ORBCOMM FM108           
1 41187U 15081J   25224.62956734  .00000724  00000+0  19189-3 0  9996
2 41187  47.0035 200.4059 0002908 235.0002 125.0611 14.58230434515037
ORBCOMM FM117           
1 41188U 15081K   25224.66425276  .00000379  00000+0  11778-3 0  9995
2 41188  46.9998 198.9847 0003595 240.5071 119.5456 14.58227321515081
ORBCOMM FM116           
1 41189U 15081L   25224.44509090  .00000661  00000+0  17788-3 0  9990
2 41189  47.0024 289.8486 0000951  31.0857 329.0085 14.58313058513864
CHUBUSAT-2              
1 41338U 16012B   25224.19283835  .00005763  00000+0  28453-3 0  9998
2 41338  30.9979 182.5622 0009934 171.9527 188.1273 15.16299788521409
